OBJECT_NAME,OBJECT_ID,EPOCH,MEAN_MOTION,ECCENTRICITY,INCLINATION,RA_OF_ASC_NODE,ARG_OF_PERICENTER,MEAN_ANOMALY,EPHEMERIS_TYPE,CLASSIFICATION_TYPE,NORAD_CAT_ID,ELEMENT_SET_NO,REV_AT_EPOCH,BSTAR,MEAN_MOTION_DOT,MEAN_MOTION_DDOT
ONEWEB-0275,2021-060AC,2026-07-07T01:33:04.239360,13.16595199,.00019734,87.9081,224.8279,96.1703,263.9653,0,U,48993,999,24217,-.59659145E-4,-.1E-6,0
ONEWEB-0276,2021-060AD,2026-07-07T04:10:23.411712,13.16593410,.00019027,87.9082,224.8052,93.3517,266.7831,0,U,48994,999,24220,.26549608E-3,.114E-5,0
ONEWEB-0277,2021-060AE,2026-07-07T00:49:46.345152,13.16594865,.0002083,87.9078,224.8406,99.5011,260.6355,0,U,48995,999,24217,.13282085E-3,.64E-6,0
ONEWEB-0278,2021-060AF,2026-07-07T02:25:30.930816,13.16593763,.00022548,87.9081,224.8192,91.3886,268.7504,0,U,48996,999,24231,.16733421E-3,.77E-6,0
ONEWEB-0279,2021-060AG,2026-07-06T15:40:17.969664,13.16593929,.00019141,87.9083,224.9060,100.4215,259.7132,0,U,48997,999,24218,-.59590325E-4,-.1E-6,0
ONEWEB-0280,2021-060AH,2026-07-06T14:12:31.356576,13.16594545,.00023947,87.9082,224.9225,99.0421,261.0981,0,U,48998,999,24211,-.11377018E-3,-.31E-6,0
ONEWEB-0281,2021-060AJ,2026-07-07T15:52:35.812704,13.16593576,.0002146,87.9082,224.7054,93.7077,266.4299,0,U,48999,999,24232,-.95875E-4,-.24E-6,0
ONEWEB-0282,2021-060AK,2026-07-07T02:00:26.183232,13.16594409,.00021405,87.9078,224.8280,99.0693,261.0680,0,U,49000,999,24222,.10805508E-3,.54E-6,0
ONEWEB-0283,2021-060AL,2026-07-07T01:44:27.687552,13.16593034,.00019687,87.9078,224.8297,98.8153,261.3201,0,U,49001,999,24223,.92159847E-4,.48E-6,0
ONEWEB-0284,2021-060AM,2026-07-06T14:38:44.742048,13.16593553,.00023877,87.9080,224.9153,95.6619,264.4784,0,U,49002,999,24215,.35283752E-4,.26E-6,0
ONEWEB-0285,2021-075A,2026-07-07T09:58:28.235712,13.12444483,.00018108,87.8964,346.6396,87.0634,273.0702,0,U,49075,999,23786,.63780958E-3,.242E-5,0
ONEWEB-0286,2021-075B,2026-07-07T09:32:38.160096,13.12442710,.00018169,87.8952,346.6581,87.6624,272.4712,0,U,49076,999,23721,-.88458885E-3,-.306E-5,0
ONEWEB-0287,2021-075C,2026-07-07T10:35:54.250368,13.17647767,.00020613,87.9136,1.8356,80.5509,279.5856,0,U,49077,999,23629,.12765685E-4,.18E-6,0
ONEWEB-0288,2021-075D,2026-07-07T08:58:40.473120,13.12440872,.00020221,87.8961,346.6409,89.0690,271.0670,0,U,49078,999,23783,-.82033756E-4,-.17E-6,0
ONEWEB-0289,2021-075E,2026-07-07T11:31:40.664064,13.17624438,.00021307,87.9144,1.8462,99.1236,261.0137,0,U,49079,999,23687,-.50570535E-2,-.1949E-4,0
ONEWEB-0290,2021-075F,2026-07-07T18:10:19.513056,13.17650477,.0002293,87.9146,1.7633,99.8189,260.3202,0,U,49080,999,23632,.19787E-3,.9E-6,0
ONEWEB-0291,2021-075G,2026-07-07T10:31:03.580032,13.17646449,.00022115,87.9139,1.8327,87.2352,272.9033,0,U,49081,999,23627,-.70143321E-4,-.14E-6,0
ONEWEB-0293,2021-075H,2026-07-07T11:07:30.322560,13.17649625,.00020187,87.9139,1.8310,93.3947,266.7415,0,U,49082,999,23630,.76477271E-4,.43E-6,0
ONEWEB-0294,2021-075J,2026-07-07T09:08:26.370528,13.12441896,.00021385,87.8962,346.6436,99.3384,260.7986,0,U,49083,999,23722,-.66379251E-3,-.226E-5,0
ONEWEB-0295,2021-075K,2026-07-07T11:06:17.921088,13.17649494,.00020972,87.9138,1.8350,84.8985,275.2386,0,U,49084,999,23626,.8409067E-4,.46E-6,0
ONEWEB-0296,2021-075L,2026-07-07T10:28:57.503424,13.12442119,.00020889,87.8969,346.6406,86.2577,273.8791,0,U,49085,999,23723,.10217774E-2,.38E-5,0
ONEWEB-0297,2021-075M,2026-07-06T22:24:22.897440,13.12442807,.00018955,87.8950,346.7489,91.1986,268.9360,0,U,49086,999,23777,-.10516171E-2,-.366E-5,0
ONEWEB-0298,2021-075N,2026-07-07T11:12:35.435520,13.17648504,.00017823,87.9139,1.8326,88.3215,271.8120,0,U,49087,999,23629,.83425157E-4,.45E-6,0
ONEWEB-0299,2021-075P,2026-07-07T11:14:47.357088,13.17647313,.00019115,87.9150,1.8141,85.8790,274.2560,0,U,49088,999,23627,.10379132E-3,.53E-6,0
ONEWEB-0300,2021-075Q,2026-07-07T09:12:05.600160,13.12441656,.00015097,87.8964,346.6407,88.2868,271.8433,0,U,49089,999,23785,-.85025857E-3,-.293E-5,0
ONEWEB-0301,2021-075R,2026-07-07T08:48:55.481184,13.12441933,.00014933,87.8961,346.6418,92.5441,267.5858,0,U,49090,999,23721,.46021358E-3,.178E-5,0
ONEWEB-0302,2021-075S,2026-07-07T10:19:11.637120,13.12441550,.00021516,87.8963,346.6420,95.9543,264.1831,0,U,49091,999,23720,.11951372E-2,.443E-5,0
ONEWEB-0304,2021-075T,2026-07-07T10:38:20.133312,13.17648198,.000196,87.9138,1.8400,86.8731,273.2625,0,U,49092,999,23624,-.54637351E-3,-.199E-5,0
ONEWEB-0305,2021-075U,2026-07-07T10:28:37.056864,13.17649927,.00020774,87.9145,1.8271,80.8390,279.2977,0,U,49093,999,23627,-.21938634E-3,-.72E-6,0
ONEWEB-0308,2021-075V,2026-07-07T10:09:25.934976,13.12442601,.00018367,87.8962,346.6352,93.1142,267.0197,0,U,49094,999,23721,.93252458E-3,.348E-5,0
